1 37673U 11024A   14080.11294595  .00001096  00000-0  18111-3 0  9994
2 37673 098.0130 088.5794 0001602 116.5591 283.5013 14.72321910149272
1 37673U 11024A   14081.13268716  .00001239  00000-0  20374-3 0  9996
2 37673 098.0129 089.5847 0001620 116.4515 285.3481 14.72325256149428
1 37673U 11024A   14082.51451024  .00001266  00000-0  20803-3 0  9992
2 37673 098.0128 090.9470 0001694 118.6908 042.8703 14.72329645149627
1 37673U 11024A   14083.59929034  .00001320  00000-0  21649-3 0  9992
2 37673 098.0126 092.0164 0001678 116.2764 031.5742 14.72332290149789
1 37673U 11024A   14084.68289122  .00001333  00000-0  21851-3 0  9999
2 37673 098.0126 093.0847 0001672 115.3296 012.5743 14.72335067149945
1 37673U 11024A   14086.09358126  .00001150  00000-0  18959-3 0  9999
2 37673 098.0125 094.4754 0001696 114.6999 285.9312 14.72339690150153
1 37673U 11024A   14087.11288678  .00001010  00000-0  16741-3 0  9999
2 37673 098.0126 095.4803 0001715 115.5049 284.6200 14.72343226150307
1 37673U 11024A   14088.13260649  .00000999  00000-0  16568-3 0  9992
2 37673 098.0127 096.4855 0001723 115.1712 286.6535 14.72346565150456
1 37673U 11024A   14089.51278257  .00000957  00000-0  15904-3 0  9996
2 37673 098.0129 097.8461 0001744 114.3983 038.5663 14.72349439150651
1 37673U 11024A   14090.66482802  .00000986  00000-0  16364-3 0  9990
2 37673 098.0129 098.9819 0001765 113.7774 021.8755 14.72353469150828
1 37673U 11024A   14091.68284675  .00001032  00000-0  17095-3 0  9996
2 37673 098.0129 099.9855 0001760 112.3972 015.9795 14.72356165150979
1 37673U 11024A   14092.63932148  .00001045  00000-0  17325-3 0  9997
2 37673 098.0126 100.9290 0002473 085.2269 069.7802 14.72279024151112
1 37673U 11024A   14093.65137278  .00000938  00000-0  15633-3 0  9991
2 37673 098.0128 101.9256 0001400 111.7875 004.0761 14.72279821151261
